KUIPER-00027            
1 63740U 25088S   25230.58335648  .00048400  00000+0  19670-2 0  9997
2 63740  51.8801 279.1289 0001759 172.9605 142.5365 15.24080260 17456
KUIPER-00028            
1 63741U 25088T   25230.58335648 -.00461749  00000+0 -18560-1 0  9991
2 63741  51.8762 278.6086 0003087 112.0316  64.1085 15.26460972 17870
KUIPER-00029            
1 63742U 25088U   25230.25004630 -.00857254  00000+0 -28618-1 0  9995
2 63742  51.8722 280.5469 0003111 138.8902 196.8432 15.33119670 17344
KUIPER-00030            
1 63743U 25088V   25230.58335648  .00000327  00000+0  66699-4 0  9991
2 63743  51.8985 288.7010 0013542 119.2825 219.6681 14.83863120 17546
KUIPER-00031            
1 63744U 25088W   25230.58335648  .00039019  00000+0  18454-2 0  9996
2 63744  51.8740 279.7043 0003700 128.0086 263.7132 15.18999213 17390
KUIPER-00032            
1 63745U 25088X   25229.88160624  .00012390  00000+0  44297-3 0  9996
2 63745  51.8737 283.2253 0004784 105.3002 254.8511 15.29176898 18288
KUIPER-00033            
1 63746U 25088Y   25230.22640399 -.00002352  00000+0 -27953-3 0  9998
2 63746  51.9014 306.3064 0003072 218.6309 141.4434 14.79925376 17474
KUIPER-00034            
1 63747U 25088Z   25229.85829274  .00014510  00000+0  39477-3 0  9998
2 63747  51.8709 281.6425 0000817  84.4071 275.7009 15.37761240 17461
