<?xml version="1.0" encoding="UTF-8"?>
<ndm xmlns:xsi="http://www.w3.org/2001/XMLSchema-instance" xsi:noNamespaceSchemaLocation="https://sanaregistry.org/r/ndmxml_unqualified/ndmxml-2.0.0-master-2.0.xsd">
<omm id="CCSDS_OMM_VERS" version="2.0">
<header><CREATION_DATE/><ORIGINATOR/></header><body><segment><metadata><OBJECT_NAME>KUIPER-00027</OBJECT_NAME><OBJECT_ID>2025-088S</OBJECT_ID><CENTER_NAME>EARTH</CENTER_NAME><REF_FRAME>TEME</REF_FRAME><TIME_SYSTEM>UTC</TIME_SYSTEM><MEAN_ELEMENT_THEORY>SGP4</MEAN_ELEMENT_THEORY></metadata><data><meanElements><EPOCH>2025-08-18T14:00:01.999872</EPOCH><MEAN_MOTION>15.24080260</MEAN_MOTION><ECCENTRICITY>.0001759</ECCENTRICITY><INCLINATION>51.8801</INCLINATION><RA_OF_ASC_NODE>279.1289</RA_OF_ASC_NODE><ARG_OF_PERICENTER>172.9605</ARG_OF_PERICENTER><MEAN_ANOMALY>142.5365</MEAN_ANOMALY></meanElements><tleParameters><EPHEMERIS_TYPE>0</EPHEMERIS_TYPE><CLASSIFICATION_TYPE>U</CLASSIFICATION_TYPE><NORAD_CAT_ID>63740</NORAD_CAT_ID><ELEMENT_SET_NO>999</ELEMENT_SET_NO><REV_AT_EPOCH>1745</REV_AT_EPOCH><BSTAR>.1967E-2</BSTAR><MEAN_MOTION_DOT>.484E-3</MEAN_MOTION_DOT><MEAN_MOTION_DDOT>0</MEAN_MOTION_DDOT></tleParameters></data></segment></body></omm>
<omm id="CCSDS_OMM_VERS" version="2.0">
<header><CREATION_DATE/><ORIGINATOR/></header><body><segment><metadata><OBJECT_NAME>KUIPER-00028</OBJECT_NAME><OBJECT_ID>2025-088T</OBJECT_ID><CENTER_NAME>EARTH</CENTER_NAME><REF_FRAME>TEME</REF_FRAME><TIME_SYSTEM>UTC</TIME_SYSTEM><MEAN_ELEMENT_THEORY>SGP4</MEAN_ELEMENT_THEORY></metadata><data><meanElements><EPOCH>2025-08-18T14:00:01.999872</EPOCH><MEAN_MOTION>15.26460972</MEAN_MOTION><ECCENTRICITY>.0003087</ECCENTRICITY><INCLINATION>51.8762</INCLINATION><RA_OF_ASC_NODE>278.6086</RA_OF_ASC_NODE><ARG_OF_PERICENTER>112.0316</ARG_OF_PERICENTER><MEAN_ANOMALY>64.1085</MEAN_ANOMALY></meanElements><tleParameters><EPHEMERIS_TYPE>0</EPHEMERIS_TYPE><CLASSIFICATION_TYPE>U</CLASSIFICATION_TYPE><NORAD_CAT_ID>63741</NORAD_CAT_ID><ELEMENT_SET_NO>999</ELEMENT_SET_NO><REV_AT_EPOCH>1787</REV_AT_EPOCH><BSTAR>-.1856E-1</BSTAR><MEAN_MOTION_DOT>-.461749E-2</MEAN_MOTION_DOT><MEAN_MOTION_DDOT>0</MEAN_MOTION_DDOT></tleParameters></data></segment></body></omm>
<omm id="CCSDS_OMM_VERS" version="2.0">
<header><CREATION_DATE/><ORIGINATOR/></header><body><segment><metadata><OBJECT_NAME>KUIPER-00029</OBJECT_NAME><OBJECT_ID>2025-088U</OBJECT_ID><CENTER_NAME>EARTH</CENTER_NAME><REF_FRAME>TEME</REF_FRAME><TIME_SYSTEM>UTC</TIME_SYSTEM><MEAN_ELEMENT_THEORY>SGP4</MEAN_ELEMENT_THEORY></metadata><data><meanElements><EPOCH>2025-08-18T06:00:04.000320</EPOCH><MEAN_MOTION>15.33119670</MEAN_MOTION><ECCENTRICITY>.0003111</ECCENTRICITY><INCLINATION>51.8722</INCLINATION><RA_OF_ASC_NODE>280.5469</RA_OF_ASC_NODE><ARG_OF_PERICENTER>138.8902</ARG_OF_PERICENTER><MEAN_ANOMALY>196.8432</MEAN_ANOMALY></meanElements><tleParameters><EPHEMERIS_TYPE>0</EPHEMERIS_TYPE><CLASSIFICATION_TYPE>U</CLASSIFICATION_TYPE><NORAD_CAT_ID>63742</NORAD_CAT_ID><ELEMENT_SET_NO>999</ELEMENT_SET_NO><REV_AT_EPOCH>1734</REV_AT_EPOCH><BSTAR>-.28618E-1</BSTAR><MEAN_MOTION_DOT>-.857254E-2</MEAN_MOTION_DOT><MEAN_MOTION_DDOT>0</MEAN_MOTION_DDOT></tleParameters></data></segment></body></omm>
<omm id="CCSDS_OMM_VERS" version="2.0">
<header><CREATION_DATE/><ORIGINATOR/></header><body><segment><metadata><OBJECT_NAME>KUIPER-00030</OBJECT_NAME><OBJECT_ID>2025-088V</OBJECT_ID><CENTER_NAME>EARTH</CENTER_NAME><REF_FRAME>TEME</REF_FRAME><TIME_SYSTEM>UTC</TIME_SYSTEM><MEAN_ELEMENT_THEORY>SGP4</MEAN_ELEMENT_THEORY></metadata><data><meanElements><EPOCH>2025-08-18T14:00:01.999872</EPOCH><MEAN_MOTION>14.83863120</MEAN_MOTION><ECCENTRICITY>.0013542</ECCENTRICITY><INCLINATION>51.8985</INCLINATION><RA_OF_ASC_NODE>288.7010</RA_OF_ASC_NODE><ARG_OF_PERICENTER>119.2825</ARG_OF_PERICENTER><MEAN_ANOMALY>219.6681</MEAN_ANOMALY></meanElements><tleParameters><EPHEMERIS_TYPE>0</EPHEMERIS_TYPE><CLASSIFICATION_TYPE>U</CLASSIFICATION_TYPE><NORAD_CAT_ID>63743</NORAD_CAT_ID><ELEMENT_SET_NO>999</ELEMENT_SET_NO><REV_AT_EPOCH>1754</REV_AT_EPOCH><BSTAR>.66699E-4</BSTAR><MEAN_MOTION_DOT>.327E-5</MEAN_MOTION_DOT><MEAN_MOTION_DDOT>0</MEAN_MOTION_DDOT></tleParameters></data></segment></body></omm>
<omm id="CCSDS_OMM_VERS" version="2.0">
<header><CREATION_DATE/><ORIGINATOR/></header><body><segment><metadata><OBJECT_NAME>KUIPER-00031</OBJECT_NAME><OBJECT_ID>2025-088W</OBJECT_ID><CENTER_NAME>EARTH</CENTER_NAME><REF_FRAME>TEME</REF_FRAME><TIME_SYSTEM>UTC</TIME_SYSTEM><MEAN_ELEMENT_THEORY>SGP4</MEAN_ELEMENT_THEORY></metadata><data><meanElements><EPOCH>2025-08-18T14:00:01.999872</EPOCH><MEAN_MOTION>15.18999213</MEAN_MOTION><ECCENTRICITY>.00037</ECCENTRICITY><INCLINATION>51.8740</INCLINATION><RA_OF_ASC_NODE>279.7043</RA_OF_ASC_NODE><ARG_OF_PERICENTER>128.0086</ARG_OF_PERICENTER><MEAN_ANOMALY>263.7132</MEAN_ANOMALY></meanElements><tleParameters><EPHEMERIS_TYPE>0</EPHEMERIS_TYPE><CLASSIFICATION_TYPE>U</CLASSIFICATION_TYPE><NORAD_CAT_ID>63744</NORAD_CAT_ID><ELEMENT_SET_NO>999</ELEMENT_SET_NO><REV_AT_EPOCH>1739</REV_AT_EPOCH><BSTAR>.18454E-2</BSTAR><MEAN_MOTION_DOT>.39019E-3</MEAN_MOTION_DOT><MEAN_MOTION_DDOT>0</MEAN_MOTION_DDOT></tleParameters></data></segment></body></omm>
<omm id="CCSDS_OMM_VERS" version="2.0">
<header><CREATION_DATE/><ORIGINATOR/></header><body><segment><metadata><OBJECT_NAME>KUIPER-00032</OBJECT_NAME><OBJECT_ID>2025-088X</OBJECT_ID><CENTER_NAME>EARTH</CENTER_NAME><REF_FRAME>TEME</REF_FRAME><TIME_SYSTEM>UTC</TIME_SYSTEM><MEAN_ELEMENT_THEORY>SGP4</MEAN_ELEMENT_THEORY></metadata><data><meanElements><EPOCH>2025-08-17T21:09:30.779136</EPOCH><MEAN_MOTION>15.29176898</MEAN_MOTION><ECCENTRICITY>.0004784</ECCENTRICITY><INCLINATION>51.8737</INCLINATION><RA_OF_ASC_NODE>283.2253</RA_OF_ASC_NODE><ARG_OF_PERICENTER>105.3002</ARG_OF_PERICENTER><MEAN_ANOMALY>254.8511</MEAN_ANOMALY></meanElements><tleParameters><EPHEMERIS_TYPE>0</EPHEMERIS_TYPE><CLASSIFICATION_TYPE>U</CLASSIFICATION_TYPE><NORAD_CAT_ID>63745</NORAD_CAT_ID><ELEMENT_SET_NO>999</ELEMENT_SET_NO><REV_AT_EPOCH>1828</REV_AT_EPOCH><BSTAR>.44297E-3</BSTAR><MEAN_MOTION_DOT>.1239E-3</MEAN_MOTION_DOT><MEAN_MOTION_DDOT>0</MEAN_MOTION_DDOT></tleParameters></data></segment></body></omm>
<omm id="CCSDS_OMM_VERS" version="2.0">
<header><CREATION_DATE/><ORIGINATOR/></header><body><segment><metadata><OBJECT_NAME>KUIPER-00033</OBJECT_NAME><OBJECT_ID>2025-088Y</OBJECT_ID><CENTER_NAME>EARTH</CENTER_NAME><REF_FRAME>TEME</REF_FRAME><TIME_SYSTEM>UTC</TIME_SYSTEM><MEAN_ELEMENT_THEORY>SGP4</MEAN_ELEMENT_THEORY></metadata><data><meanElements><EPOCH>2025-08-18T05:26:01.304736</EPOCH><MEAN_MOTION>14.79925376</MEAN_MOTION><ECCENTRICITY>.0003072</ECCENTRICITY><INCLINATION>51.9014</INCLINATION><RA_OF_ASC_NODE>306.3064</RA_OF_ASC_NODE><ARG_OF_PERICENTER>218.6309</ARG_OF_PERICENTER><MEAN_ANOMALY>141.4434</MEAN_ANOMALY></meanElements><tleParameters><EPHEMERIS_TYPE>0</EPHEMERIS_TYPE><CLASSIFICATION_TYPE>U</CLASSIFICATION_TYPE><NORAD_CAT_ID>63746</NORAD_CAT_ID><ELEMENT_SET_NO>999</ELEMENT_SET_NO><REV_AT_EPOCH>1747</REV_AT_EPOCH><BSTAR>-.27953E-3</BSTAR><MEAN_MOTION_DOT>-.2352E-4</MEAN_MOTION_DOT><MEAN_MOTION_DDOT>0</MEAN_MOTION_DDOT></tleParameters></data></segment></body></omm>
<omm id="CCSDS_OMM_VERS" version="2.0">
<header><CREATION_DATE/><ORIGINATOR/></header><body><segment><metadata><OBJECT_NAME>KUIPER-00034</OBJECT_NAME><OBJECT_ID>2025-088Z</OBJECT_ID><CENTER_NAME>EARTH</CENTER_NAME><REF_FRAME>TEME</REF_FRAME><TIME_SYSTEM>UTC</TIME_SYSTEM><MEAN_ELEMENT_THEORY>SGP4</MEAN_ELEMENT_THEORY></metadata><data><meanElements><EPOCH>2025-08-17T20:35:56.492736</EPOCH><MEAN_MOTION>15.37761240</MEAN_MOTION><ECCENTRICITY>.0000817</ECCENTRICITY><INCLINATION>51.8709</INCLINATION><RA_OF_ASC_NODE>281.6425</RA_OF_ASC_NODE><ARG_OF_PERICENTER>84.4071</ARG_OF_PERICENTER><MEAN_ANOMALY>275.7009</MEAN_ANOMALY></meanElements><tleParameters><EPHEMERIS_TYPE>0</EPHEMERIS_TYPE><CLASSIFICATION_TYPE>U</CLASSIFICATION_TYPE><NORAD_CAT_ID>63747</NORAD_CAT_ID><ELEMENT_SET_NO>999</ELEMENT_SET_NO><REV_AT_EPOCH>1746</REV_AT_EPOCH><BSTAR>.39477E-3</BSTAR><MEAN_MOTION_DOT>.1451E-3</MEAN_MOTION_DOT><MEAN_MOTION_DDOT>0</MEAN_MOTION_DDOT></tleParameters></data></segment></body></omm>

</ndm>
